STARLINK-4770           
1 53849U 22114AH  23260.64486744  .00002171  00000+0  15439-3 0  9990
2 53849  53.2181  32.3913 0001345  68.7886 291.3250 15.08850459 55959
STARLINK-4767           
1 53850U 22114AJ  23261.08644010  .00003210  00000+0  21961-3 0  9995
2 53850  53.2187  30.1682 0001069  85.5335 274.5779 15.08847174 56023
STARLINK-4755           
1 53851U 22114AK  23261.10117955  .00004456  00000+0  29781-3 0  9993
2 53851  53.2184  30.2583 0000843  93.9032 266.2057 15.08844976 56022
STARLINK-4797           
1 53852U 22114AL  23261.04830008  .00000211  00000+0  31338-4 0  9995
2 53852  53.2198  25.6542 0001631  73.1288 286.9883 15.08843386 56086
STARLINK-4794           
1 53853U 22114AM  23261.09381163 -.00004124  00000+0 -24126-3 0  9999
2 53853  53.2177  30.2112 0001743 119.3619 240.7548 15.08828352 56020
STARLINK-4800           
1 53854U 22114AN  23261.07639498  .00008343  00000+0  54150-3 0  9990
2 53854  53.2173  20.8338 0001376  63.8252 296.2882 15.08850777 56157
STARLINK-4703           
1 53855U 22114AP  23260.63477022  .00000943  00000+0  77291-4 0  9995
2 53855  53.2194  32.3252 0001370  74.0814 286.0329 15.08851482 55950
STARLINK-4795           
1 53856U 22114AQ  23260.53173619  .00001413  00000+0  10686-3 0  9997
2 53856  53.2198  23.1193 0001556  94.2586 265.8584 15.08848017 56615
STARLINK-4809           
1 53857U 22114AR  23260.68531048  .00001794  00000+0  13071-3 0  9991
2 53857  53.2195  31.9336 0001167  85.6277 274.4848 15.08854988 55968
STARLINK-4798           
1 53858U 22114AS  23261.07270906  .00009733  00000+0  62848-3 0  9996
2 53858  53.2181  20.8103 0001329  66.6535 293.4597 15.08855002 56151
STARLINK-4790           
1 53859U 22114AT  23261.08875192  .00004747  00000+0  31624-3 0  9994
2 53859  53.2195  25.2006 0001678  72.8079 287.3096 15.08829949 56097
STARLINK-4799           
1 53860U 22114AU  23260.53542134  .00005116  00000+0  33925-3 0  9999
2 53860  53.2185  23.1425 0001452  82.9658 277.1500 15.08847811 56371
STARLINK-4781           
1 53861U 22114AV  23260.60534408  .00001430  00000+0  10788-3 0  9990
2 53861  53.2196  22.8685 0001393  76.1132 284.0015 15.08845468 56086
STARLINK-4792           
1 53862U 22114AW  23260.65780327  .00001169  00000+0  91512-4 0  9993
2 53862  53.2189  22.4851 0001052  79.3228 280.7883 15.08844325 56091
STARLINK-4788           
1 53863U 22114AX  23261.05797007 -.00003486  00000+0 -20106-3 0  9998
2 53863  53.2183  20.7187 0000539 108.2754 251.8297 15.08837529 56157
STARLINK-4779           
1 53864U 22114AY  23260.61631134  .00002377  00000+0  16730-3 0  9992
2 53864  53.2184  22.2310 0001292  76.7047 283.4089 15.08853465 56095
STARLINK-4785           
1 53865U 22114AZ  23260.57218179  .00001814  00000+0  13201-3 0  9993
2 53865  53.2192  22.6616 0001436  83.4378 276.6778 15.08848105 56623
STARLINK-4762           
1 53866U 22114BA  23261.00463050  .00000049  00000+0  21193-4 0  9992
2 53866  53.2182   1.1273 0001223  83.5213 276.5918 15.08847556 56429
STARLINK-4793           
1 53867U 22114BB  23260.59521342 -.00000292  00000+0 -24695-6 0  9999
2 53867  53.2195  12.8226 0001468  78.0175 282.0982 15.08845343 56221
STARLINK-4789           
1 53868U 22114BC  23260.51146958  .00000492  00000+0  48984-4 0  9993
2 53868  53.2190   3.0404 0001520 105.4098 254.7062 15.08848398 56896
STARLINK-4810           
1 53869U 22114BD  23261.02204588  .00003445  00000+0  23438-3 0  9992
2 53869  53.2182  10.5119 0000631 120.6246 239.4809 15.08842237 56299
STARLINK-4732           
1 53870U 22114BE  23260.51515605  .00001076  00000+0  85682-4 0  9990
2 53870  53.2178   3.0492 0001445  73.2098 286.9053 15.08852563 56896
STARLINK-4740           
1 53871U 22114BF  23261.01560130  .00008889  00000+0  57576-3 0  9999
2 53871  53.2185   0.4911 0001207  89.3706 270.7425 15.08847920 56437
CHUANGXIN 16B (CX-16B)  
1 53876U 22102B   23261.01070472  .00010167  00000+0  86035-3 0  9990
2 53876  28.9983  16.9809 0004541 344.4463  15.5994 14.96558828 54373
YUNHAI 1-03             
1 53877U 22115A   23261.13509277  .00000549  00000+0  21647-3 0  9999
2 53877  98.5113 258.2057 0001134  67.0425 293.0878 14.33002979 51866
2022-118A               
1 53884U 22118A   23261.08850973  .00010557  00000+0  38355-3 0  9990
2 53884  97.5081 274.1453 0015462  83.8796 276.4204 15.28361185 54605
2022-118B               
1 53885U 22118B   23261.06430130  .00013958  00000+0  47907-3 0  9999
2 53885  97.5088 274.8256 0013237  88.8093 271.4664 15.30178305 54635
STARLINK-5028           
1 53886U 22119A   23260.46183521  .00000368  00000+0  41221-4 0  9998
2 53886  53.2183  63.5862 0001447  78.6192 281.4963 15.08843383 55177
STARLINK-5029           
1 53887U 22119B   23260.45078141  .00003604  00000+0  24434-3 0  9991
2 53887  53.2162  63.5152 0001408  80.6602 279.4549 15.08846592 55175
STARLINK-5034           
1 53888U 22119C   23260.72310833  .00003649  00000+0  24720-3 0  9996
2 53888  53.2191  62.3722 0001341  95.4568 264.6577 15.08849320 54795
STARLINK-5031           
1 53889U 22119D   23260.91813562  .00014676  00000+0  93745-3 0  9990
2 53889  53.2169  61.4558 0001180  77.3717 282.7407 15.08871235 54821
STARLINK-5050           
1 53890U 22119E   23261.07771646  .00006821  00000+0  44602-3 0  9997
2 53890  53.2184  25.3745 0000959  97.5300 262.5801 15.08856052 55344
STARLINK-5041           
1 53891U 22119F   23260.77829359  .00002299  00000+0  16241-3 0  9992
2 53891  53.2172  62.0078 0001204  75.1373 284.9752 15.08850965 54805
STARLINK-5046           
1 53892U 22119G   23260.49492503 -.00000478  00000+0 -11948-4 0  9998
2 53892  53.2184  63.0828 0001126  67.9486 292.1626 15.08834927 55183
STARLINK-5052           
1 53893U 22119H   23260.76723920  .00003020  00000+0  20769-3 0  9993
2 53893  53.2161  61.9407 0001196  76.7683 283.3443 15.08849117 54807
STARLINK-5043           
1 53894U 22119J   23259.84725212  .00004146  00000+0  27838-3 0  9991
2 53894  53.2165  66.1473 0001219  76.0481 284.0646 15.08844357 55082
STARLINK-5032           
1 53895U 22119K   23260.76356063 -.00000621  00000+0 -20932-4 0  9994
2 53895  53.2185  61.9195 0001105  79.4082 280.7035 15.08841344 54804
STARLINK-5037           
1 53896U 22119L   23260.75618752  .00001885  00000+0  13644-3 0  9992
2 53896  53.2171  61.8713 0001208  96.9075 263.2054 15.08849322 54806
STARLINK-5035           
1 53897U 22119M   23259.97604542  .00004152  00000+0  27878-3 0  9991
2 53897  53.2163  65.5297 0001179  79.1267 280.9858 15.08846655 55107
STARLINK-5044           
1 53898U 22119N   23260.81136886  .00001600  00000+0  11854-3 0  9990
2 53898  53.2183  61.5054 0001319  83.4491 276.6651 15.08851284 54814
STARLINK-5042           
1 53899U 22119P   23260.81505405  .00002189  00000+0  15556-3 0  9994
2 53899  53.2171  61.5268 0001343  77.3784 282.7358 15.08851547 54817
STARLINK-5045           
1 53900U 22119Q   23260.73776358  .00003919  00000+0  26412-3 0  9990
2 53900  53.2179  61.7573 0001247  83.5964 276.5170 15.08849574 54800
STARLINK-5024           
1 53901U 22119R   23260.75249661  .00003456  00000+0  23503-3 0  9999
2 53901  53.2173  61.8497 0001042  78.1348 281.9761 15.08850977 54805
STARLINK-5021           
1 53902U 22119S   23260.53997783  .00000816  00000+0  69326-4 0  9992
2 53902  53.2191  12.7671 0001404  73.9889 286.1257 15.08842563 55473
STARLINK-5022           
1 53903U 22119T   23260.75345892  .00000595  00000+0  55469-4 0  9992
2 53903  53.2178  61.8554 0001253  94.1429 265.9706 15.08844112 54803
STARLINK-4787           
1 53904U 22119U   23260.86655544  .00001541  00000+0  11484-3 0  9993
2 53904  53.2180  61.1396 0001407  80.6288 279.4863 15.08850001 54828
STARLINK-5003           
1 53905U 22119V   23260.45907394  .00005951  00000+0  39162-3 0  9994
2 53905  53.2174  53.5898 0001423  89.2200 270.8955 15.08843646 55310
STARLINK-5054           
1 53906U 22119W   23260.40749414  .00008044  00000+0  52258-3 0  9994
2 53906  53.2166  53.2799 0001219  70.0020 290.1104 15.08863242 55315
STARLINK-5063           
1 53907U 22119X   23260.46543392  .00002472  00000+0  17334-3 0  9993
2 53907  53.2177  62.9014 0001455  78.3855 281.7300 15.08845370 55185
STARLINK-5057           
1 53908U 22119Y   23260.38546575  .00000998  00000+0  80759-4 0  9994
2 53908  53.2171  53.8387 0001156  75.2445 284.8675 15.08840230 55304
STARLINK-4796           
1 53909U 22119Z   23260.72771813  .00000789  00000+0  67628-4 0  9996
2 53909  53.2187  52.4243 0001244  78.0030 282.1102 15.08846285 54937
STARLINK-5056           
1 53910U 22119AA  23260.70929327  .00004704  00000+0  31335-3 0  9997
2 53910  53.2182  52.3067 0001252  77.7738 282.3395 15.08851463 54937
STARLINK-5048           
1 53911U 22119AB  23260.45539048  .00001541  00000+0  11490-3 0  9993
2 53911  53.2178  53.5653 0001367  93.7650 266.3498 15.08842756 55319
STARLINK-5059           
1 53912U 22119AC  23260.73500079  .00006449  00000+0  42273-3 0  9992
2 53912  53.2175  51.7710 0001184  76.9018 283.2106 15.08853570 54947
STARLINK-5053           
1 53913U 22119AD  23260.56944392  .00000907  00000+0  75062-4 0  9990
2 53913  53.2174  52.8550 0001335  84.2617 275.8528 15.08844442 55333
STARLINK-5040           
1 53914U 22119AE  23260.69823537  .00001272  00000+0  97987-4 0  9998
2 53914  53.2186  52.2377 0001194  84.8243 275.2885 15.08850844 54930
STARLINK-5017           
1 53915U 22119AF  23260.71297817  .00004617  00000+0  30789-3 0  9990
2 53915  53.2191  52.3310 0001343  84.3214 275.7932 15.08851139 54930
STARLINK-5051           
1 53916U 22119AG  23260.72948005  .00004545  00000+0  30333-3 0  9999
2 53916  53.2186  31.8081 0001381  71.4791 288.6351 15.08858870 55221
STARLINK-5036           
1 53917U 22119AH  23259.84449167  .00002810  00000+0  19458-3 0  9994
2 53917  53.2175  56.1491 0000893  90.3669 269.7425 15.08841629 55222
